OBJECT_NAME,OBJECT_ID,EPOCH,MEAN_MOTION,ECCENTRICITY,INCLINATION,RA_OF_ASC_NODE,ARG_OF_PERICENTER,MEAN_ANOMALY,EPHEMERIS_TYPE,CLASSIFICATION_TYPE,NORAD_CAT_ID,ELEMENT_SET_NO,REV_AT_EPOCH,BSTAR,MEAN_MOTION_DOT,MEAN_MOTION_DDOT
STARLINK-37519,2026-119C,2026-07-09T01:04:36.529536,15.33452988,.00004449,97.2853,215.7860,107.1549,252.9742,0,U,69298,999,740,.47272802E-3,.15221E-3,0
STARLINK-37455,2026-119D,2026-07-09T01:08:31.710336,15.33467069,.00017005,97.2849,215.7824,92.2534,267.8904,0,U,69299,999,740,.31433261E-3,.10094E-3,0
STARLINK-37456,2026-119E,2026-07-08T15:36:53.604288,15.33442513,.00009981,97.2847,215.4042,90.4526,269.6831,0,U,69300,999,734,.26309561E-3,.8427E-4,0
STARLINK-37630,2026-119F,2026-07-09T07:12:39.892608,15.33442652,.00015799,97.2855,216.0479,71.6807,288.4608,0,U,69301,999,744,.38014768E-3,.12217E-3,0
STARLINK-37804,2026-119G,2026-07-09T06:00:02.000160,15.33456177,.00018411,97.2855,216.0059,119.1076,337.7277,0,U,69302,999,602,-.92481347E-3,-.29826E-3,0
STARLINK-37730,2026-119H,2026-07-09T00:48:56.993472,15.33430915,.000167,97.2849,215.8016,87.0875,273.0559,0,U,69303,999,740,.57612925E-3,.18562E-3,0
STARLINK-37731,2026-119J,2026-07-09T06:00:02.000160,15.33469455,.00015318,97.2854,216.0170,102.9073,23.9495,0,U,69304,999,596,-.11852312E-2,-.38177E-3,0
STARLINK-37734,2026-119K,2026-07-09T00:41:07.643616,15.33468523,.00018185,97.2859,215.8090,102.6262,257.5185,0,U,69305,999,740,.34454929E-3,.11073E-3,0
STARLINK-37701,2026-119L,2026-07-09T00:37:12.690048,15.33477468,.00024031,97.2845,215.8125,114.0072,246.1422,0,U,69306,999,740,.56129569E-3,.18109E-3,0
STARLINK-37732,2026-119M,2026-07-08T22:59:18.623616,15.33430821,.00015016,97.2844,215.7512,91.6896,268.4518,0,U,69307,999,739,.74943877E-3,.24187E-3,0
STARLINK-37689,2026-119N,2026-07-09T06:00:02.000160,15.33450645,.00012191,97.2855,216.0424,103.2284,83.6438,0,U,69308,999,596,-.12715738E-2,-.40913E-3,0
STARLINK-37619,2026-119P,2026-07-09T00:25:27.632352,15.33471026,.00013414,97.2865,215.8264,102.2292,257.9101,0,U,69309,999,740,.43178544E-3,.13902E-3,0
STARLINK-37794,2026-119Q,2026-07-09T00:21:32.747040,15.33474542,.00012991,97.2854,215.8284,111.4289,248.7093,0,U,69310,999,740,.52153579E-3,.16815E-3,0
STARLINK-37795,2026-119R,2026-07-09T06:00:02.000160,15.33408334,.00020215,97.2855,216.0647,85.4901,146.4185,0,U,69311,999,602,-.10471072E-2,-.33693E-3,0
STARLINK-37790,2026-119S,2026-07-08T14:49:54.860448,15.33471182,.00004668,97.2856,215.4470,12.0219,348.1035,0,U,69312,999,734,.40411136E-3,.13004E-3,0
STARLINK-37676,2026-119T,2026-07-08T14:46:00.081408,15.33474914,.00006906,97.2848,215.4504,22.3328,337.7945,0,U,69313,999,734,.59658157E-3,.19252E-3,0
STARLINK-37617,2026-119U,2026-07-08T14:42:06.024672,15.33465778,.00020769,97.2846,215.4541,104.6303,255.5170,0,U,69314,999,734,.4126825E-3,.1328E-3,0
STARLINK-37627,2026-119V,2026-07-09T00:00:02.000160,15.33407137,.00011157,97.2857,215.8440,96.1262,256.5596,0,U,69315,999,603,.19641223E-2,.63796E-3,0
STARLINK-37738,2026-119W,2026-07-09T07:47:53.887200,15.33452526,.00005381,97.2864,216.1697,269.4090,90.7091,0,U,69316,999,745,.69198815E-3,.22336E-3,0
STARLINK-37799,2026-119X,2026-07-09T01:28:06.551616,15.33468645,.00016139,97.2857,215.9173,95.9670,264.1757,0,U,69317,999,616,.4715472E-3,.1519E-3,0
STARLINK-37802,2026-119Y,2026-07-08T14:26:24.788256,15.33475638,.00013696,97.2854,215.4701,262.8867,97.2220,0,U,69318,999,734,.62077719E-3,.20039E-3,0
STARLINK-37803,2026-119Z,2026-07-09T07:36:10.416672,15.33450369,.00016132,97.2856,216.1808,67.6772,292.4641,0,U,69319,999,620,.38737598E-3,.12454E-3,0
STARLINK-37733,2026-122A,2026-07-09T00:26:58.386048,15.33472227,.00012107,97.2853,219.6173,108.8018,251.3356,0,U,69329,999,553,.38701174E-3,.1245E-3,0
STARLINK-37772,2026-122B,2026-07-09T00:23:03.285600,15.33448604,.00017752,97.2825,219.6227,133.6993,226.4398,0,U,69330,999,553,.4220619E-3,.13577E-3,0
STARLINK-37768,2026-122C,2026-07-09T00:19:08.714784,15.33471230,.00015379,97.2853,219.6236,93.4518,266.6901,0,U,69331,999,553,.44097044E-3,.142E-3,0
STARLINK-37833,2026-122D,2026-07-08T14:51:25.518240,15.33472830,.00006897,97.2869,219.2408,274.0551,86.0613,0,U,69332,999,547,.50374564E-3,.16237E-3,0
STARLINK-37818,2026-122E,2026-07-08T14:47:31.388064,15.33465026,.00005836,97.2844,219.2443,149.0700,211.0577,0,U,69333,999,547,.41623806E-3,.13395E-3,0
STARLINK-37868,2026-122F,2026-07-09T01:41:21.895584,15.33466168,.00017285,97.2849,219.6988,76.7441,283.3994,0,U,69334,999,554,.40006345E-3,.12871E-3,0
STARLINK-37877,2026-122G,2026-07-09T06:00:02.000160,15.33463743,.00007722,97.2852,219.8811,73.5351,212.5277,0,U,69335,999,605,-.14435243E-2,-.4642E-3,0
STARLINK-37791,2026-122H,2026-07-08T14:35:45.357504,15.33472718,.00013542,97.2864,219.2553,266.2390,93.8697,0,U,69336,999,547,.51418218E-3,.16576E-3,0
STARLINK-37765,2026-122J,2026-07-09T07:45:29.201760,15.33473996,.00012264,97.2819,219.9677,112.0858,248.0515,0,U,69337,999,558,.8272561E-3,.26751E-3,0
STARLINK-37788,2026-122K,2026-07-09T06:07:58.958400,15.36315913,.00051734,97.2830,219.9053,317.2513,42.8329,0,U,69338,999,557,-.83600298E-2,-.285127E-2,0
STARLINK-37743,2026-122L,2026-07-09T01:21:48.069504,15.33468516,.00007433,97.2847,219.7166,85.4143,274.7185,0,U,69339,999,554,.57566342E-3,.18569E-3,0
STARLINK-37780,2026-122M,2026-07-09T01:17:52.874016,15.33464370,.00022141,97.2848,219.7213,88.8771,271.2726,0,U,69340,999,554,.60702481E-3,.19586E-3,0
STARLINK-37781,2026-122N,2026-07-09T06:00:02.000160,15.33441080,.00007766,97.2851,219.9183,112.5856,263.4784,0,U,69341,999,606,-.1077026E-2,-.34682E-3,0
STARLINK-37782,2026-122P,2026-07-08T15:46:14.478528,15.33448360,.00012603,97.2840,219.3453,97.1351,263.0035,0,U,69342,999,548,.41994622E-3,.13508E-3,0
STARLINK-37776,2026-122Q,2026-07-08T14:08:22.756992,15.33441433,.00015559,97.2867,219.2823,141.3421,218.7934,0,U,69343,999,547,.62751667E-3,.20236E-3,0
STARLINK-37786,2026-122R,2026-07-09T01:02:12.778944,15.33457268,.00017199,97.2860,219.7362,90.7106,269.4333,0,U,69344,999,554,.4315552E-3,.13888E-3,0
STARLINK-37785,2026-122S,2026-07-08T15:34:30.160416,15.33442086,.00010266,97.2851,219.3551,92.2618,267.8742,0,U,69345,999,548,.3700741E-3,.1189E-3,0
STARLINK-37773,2026-122T,2026-07-09T00:54:24.748416,15.33425716,.00023734,97.2849,219.7430,92.1897,267.9617,0,U,69346,999,554,.70397787E-3,.22708E-3,0
STARLINK-37744,2026-122U,2026-07-09T06:00:02.000160,15.36991887,.00016609,97.2853,219.9504,83.7750,6.0878,0,U,69347,999,606,-.10787916E-2,-.38866E-3,0
STARLINK-37775,2026-122V,2026-07-09T06:00:02.000160,15.33478393,.00004619,97.2853,219.9653,44.1032,76.9089,0,U,69348,999,606,-.13121768E-2,-.42245E-3,0
STARLINK-37777,2026-122W,2026-07-09T00:42:38.190816,15.33456250,.0002062,97.2842,219.7541,103.9537,256.1936,0,U,69349,999,554,.43514883E-3,.14005E-3,0
STARLINK-37779,2026-122X,2026-07-09T00:38:43.508544,15.33475785,.00017877,97.2874,219.7614,101.3011,258.8432,0,U,69350,999,554,.57625687E-3,.18593E-3,0
STARLINK-37549,2026-122Y,2026-07-09T06:00:02.000160,15.33459487,.00008571,97.2852,219.9839,56.0231,110.0795,0,U,69351,999,606,-.15597331E-2,-.5012E-3,0
STARLINK-37778,2026-122Z,2026-07-09T06:00:02.000160,15.33444509,.0001468,97.2858,219.9907,104.3492,76.8024,0,U,69352,999,606,-.15440933E-2,-.496E-3,0
STARLINK-37651,2026-123A,2026-07-09T06:18:33.879168,15.75251012,.00071611,53.1603,131.4892,64.5307,295.6453,0,U,69353,999,552,.9955046E-4,.14667E-3,0
STARLINK-37652,2026-123B,2026-07-09T07:12:05.328288,15.80831904,.00011776,53.1560,130.9972,96.2606,263.8551,0,U,69354,999,553,.13372356E-2,.271171E-2,0
STARLINK-37593,2026-123C,2026-07-09T06:00:02.000160,15.75203461,.0001225,53.1585,131.3907,64.9876,301.3422,0,U,69355,999,601,.20505989E-3,.3086E-3,0
STARLINK-37597,2026-123D,2026-07-08T08:07:19.041312,15.75265023,.00012128,53.1594,136.3997,82.7573,277.3585,0,U,69356,999,537,.10454269E-2,.162919E-2,0
STARLINK-37598,2026-123E,2026-07-09T07:49:25.811616,15.75212303,.00013258,53.1570,131.1715,93.7842,266.3330,0,U,69357,999,553,.13445741E-2,.21043E-2,0
STARLINK-37602,2026-123F,2026-07-09T07:36:28.065600,15.75523659,.00033694,53.1574,131.8495,155.1592,204.9591,0,U,69358,999,552,.16012895E-2,.255566E-2,0
STARLINK-37600,2026-123G,2026-07-09T05:59:04.115616,15.75381118,.00017332,53.1545,132.1353,54.3078,305.8103,0,U,69359,999,551,.11309528E-2,.177508E-2,0
STARLINK-37599,2026-123H,2026-07-08T06:33:57.890880,15.80927518,.00012713,53.1569,135.9657,61.5642,298.5509,0,U,69360,999,537,.10411879E-2,.21041E-2,0
STARLINK-37039,2026-123J,2026-07-09T06:57:16.861536,15.75214071,.00013057,53.1578,131.6658,102.4085,257.7082,0,U,69361,999,552,.11872472E-2,.185187E-2,0
STARLINK-37040,2026-123K,2026-07-09T00:00:02.000160,15.75208347,.00013776,53.1592,132.3123,84.5608,97.7962,0,U,69362,999,609,-.31181385E-3,-.48103E-3,0
STARLINK-37582,2026-123L,2026-07-08T08:26:55.125024,15.75316279,.00007918,53.1554,136.4876,96.8246,263.2864,0,U,69363,999,537,.13468458E-2,.211782E-2,0
STARLINK-37309,2026-123M,2026-07-09T07:36:49.267296,15.75214953,.00012178,53.1592,131.1090,101.9327,258.1830,0,U,69364,999,553,.16115434E-2,.253676E-2,0
STARLINK-37436,2026-123N,2026-07-09T00:00:02.000160,15.75240433,.00013599,53.1583,132.2098,102.6426,129.3746,0,U,69365,999,598,-.57566275E-3,-.87978E-3,0
STARLINK-37581,2026-123P,2026-07-09T06:00:02.000160,15.75272980,.00009828,53.1590,130.8625,82.7974,179.2063,0,U,69366,999,602,-.63608547E-3,-.97173E-3,0
STARLINK-37683,2026-123Q,2026-07-08T07:40:42.451392,15.75266037,.00011978,53.1574,136.2685,93.2925,266.8232,0,U,69367,999,537,.12219702E-2,.191192E-2,0
STARLINK-37687,2026-123R,2026-07-09T07:35:19.546080,15.80838320,.00005586,53.1565,130.3615,87.5291,272.5796,0,U,69368,999,554,.12515255E-2,.253295E-2,0
STARLINK-37631,2026-123S,2026-07-08T09:51:36.331488,15.75287219,.00009087,53.1582,135.4008,128.6187,231.4914,0,U,69369,999,539,.11852639E-2,.185475E-2,0
STARLINK-37673,2026-123T,2026-07-09T06:11:59.744832,15.75252734,.00014316,53.1582,131.4563,42.4849,317.6282,0,U,69370,999,552,.13397013E-2,.210025E-2,0
